IRIDIUM 166             
1 43570U 18061B   25213.47613898  .00000011  00000+0 -30774-5 0  9992
2 43570  86.4005 190.3246 0002067  93.7292 266.4140 14.34217414367578
IRIDIUM 158             
1 43571U 18061C   25213.44442619  .00000076  00000+0  20116-4 0  9999
2 43571  86.4000 190.3474 0002147  84.4704 275.6737 14.34217683367540
IRIDIUM 165             
1 43572U 18061D   25213.46979693  .00000116  00000+0  34379-4 0  9990
2 43572  86.4002 190.3768 0002350  90.8991 269.2474 14.34217813367568
IRIDIUM 155             
1 43573U 18061E   25213.36197173  .00000050  00000+0  10804-4 0  9999
2 43573  86.4000 190.3073 0001995  87.2966 272.8458 14.34217986367510
IRIDIUM 154             
1 43574U 18061F   25213.48247992  .00000101  00000+0  28950-4 0  9996
2 43574  86.4002 190.3744 0002293  87.5141 272.6317 14.34217227367585
IRIDIUM 163             
1 43575U 18061G   25213.46346226  .00000288  00000+0  95671-4 0  9995
2 43575  86.4000 190.3079 0002270  83.0580 277.0874 14.34218789367556
IRIDIUM 156             
1 43576U 18061H   25213.36831511 -.00000006  00000+0 -91208-5 0  9994
2 43576  86.4003 190.3546 0001832  91.7807 268.3599 14.34217389367530
IRIDIUM 164             
1 43577U 18061J   25213.48882429  .00000009  00000+0 -36798-5 0  9997
2 43577  86.4005 190.3396 0002251  92.3108 267.8346 14.34217279367591
